0 IRIDIUM 126
1 42809U 17039G   24013.50706979  .00000482  00000-0  16502-3 0  9997
2 42809  86.3955   3.7745 0002323  98.1052 262.0408 14.34217711343005
0 IRIDIUM 124
1 42810U 17039H   24014.18288147  .00000846  00000-0  24535-3 0  9995
2 42810  86.4502 300.2445 0001896  82.6766 277.4650 14.43282949347460
0 IRIDIUM 128
1 42811U 17039J   24014.47456330  .00000143  00000-0  43863-4 0  9995
2 42811  86.3954  34.8803 0002263  85.6342 274.5113 14.34215622343171
0 IRIDIUM 121
1 42812U 17039K   24014.50285835 -.00000058  00000-0 -27790-4 0  9998
2 42812  86.3972   3.3759 0002122  86.7322 273.4117 14.34218277343022
0 IRIDIUM 133
1 42955U 17061A   24013.59928631  .00000509  00000-0  17463-3 0  9991
2 42955  86.3954  35.3411 0002565  91.7622 268.3867 14.34215975327849
0 IRIDIUM 100
1 42956U 17061B   24014.15108398  .00000498  00000-0  17074-3 0  9990
2 42956  86.3951  35.0505 0002463  92.1480 267.9998 14.34214655327947
0 IRIDIUM 122
1 42957U 17061C   24014.11937673  .00000495  00000-0  16979-3 0  9993
2 42957  86.3954  35.0625 0002375  90.4419 269.7049 14.34218114327928
0 IRIDIUM 129
1 42958U 17061D   24014.14475134  .00000481  00000-0  16461-3 0  9997
2 42958  86.3950  35.1088 0002468  91.8052 268.3427 14.34216154327949
